OSCAR 7 (AO-7)          
1 07530U 74089B   26165.25919906 -.00000031  00000+0  98943-4 0  9995
2 07530 101.9901 178.4753 0012539 135.5580 235.9820 12.53698067360151
PHASE 3B (AO-10)        
1 14129U 83058B   26164.48490246  .00000072  00000+0  00000+0 0  9994
2 14129  25.9094 220.1781 6012114 114.6492 317.6358  2.05869395295412
UOSAT 2 (UO-11)         
1 14781U 84021B   26165.20095834  .00001160  00000+0  12366-3 0  9995
2 14781  97.8057 130.8090 0007353 182.6210 177.4971 14.90776632256686
LUSAT (LO-19)           
1 20442U 90005G   26164.97260120  .00000110  00000+0  56016-4 0  9995
2 20442  98.8851 186.6896 0010942 210.9813 149.0727 14.34122315901935
EYESAT A (AO-27)        
1 22825U 93061C   26165.20292012  .00000088  00000+0  50393-4 0  9995
2 22825  98.6880 232.6175 0009509 107.4097 252.8126 14.30941512706578
ITAMSAT (IO-26)         
1 22826U 93061D   26165.18322286  .00000084  00000+0  48499-4 0  9990
2 22826  98.6828 232.5150 0010095  92.8223 267.4115 14.31368337706886
RADIO ROSTO (RS15)      
1 23439U 94085A   26165.10055205 -.00000049  00000+0 -18898-3 0  9996
2 23439  64.8180 308.2082 0155856   4.4474 355.7795 11.27583525295552
JAS-2 (FO-29)           
1 24278U 96046B   26165.13192875  .00000020  00000+0  52658-4 0  9995
2 24278  98.5241  14.4226 0350867 104.3391 259.6965 13.53274148472758
TECHSAT 1B (GO-32)      
1 25397U 98043D   26164.97369743  .00000055  00000+0  43938-4 0  9997
2 25397  99.0066 157.6512 0000887 169.9985 190.1211 14.24427891450876
ISS (ZARYA)             
1 25544U 98067A   26165.09325831  .00008623  00000+0  16324-3 0  9998
2 25544  51.6335 315.4063 0004935 183.6835 176.4118 15.49219019571273
PCSAT (NO-44)           
1 26931U 01043C   26165.29565329  .00000096  00000+0  66841-4 0  9993
2 26931  67.0507 251.7506 0006072 264.5496  95.4913 14.31955183290030
SAUDISAT 1C (SO-50)     
1 27607U 02058C   26165.25570183  .00000931  00000+0  12707-3 0  9990
2 27607  64.5509 138.0554 0075327 263.0161  96.2373 14.83041207264026
CUTE-1 (CO-55)          
1 27844U 03031E   26165.01650923  .00000269  00000+0  13536-3 0  9995
2 27844  98.6736 173.6152 0009315 187.2201 172.8845 14.24333986191223
CUBESAT XI-IV (CO-57)   
1 27848U 03031J   26165.28450993  .00000215  00000+0  11362-3 0  9999
2 27848  98.6766 173.5948 0008828 205.9293 154.1445 14.23619426190963
MOZHAETS 4 (RS22)       
1 27939U 03042A   26165.29524249  .00001006  00000+0  16324-3 0  9991
2 27939  98.3466 349.5726 0009986 280.2575 157.7014 14.73462884215128
CUBESAT XI-V            
1 28895U 05043F   26164.39375696  .00001317  00000+0  21486-3 0  9996
2 28895  98.2979 319.9359 0013416 213.2696 146.7669 14.72622172101196
CUTE-1.7+APD II (CO-65) 
1 32785U 08021C   26165.19938055  .00004778  00000+0  30257-3 0  9991
2 32785  97.8270 146.5558 0010151  48.5281 311.6817 15.09428490984741
SEEDS II (CO-66)        
1 32791U 08021J   26164.93655222  .00018728  00000+0  59582-3 0  9993
2 32791  97.7509 162.6789 0001549  14.7739 345.3547 15.32650243986791
YUBILEINY (RS30)        
1 32953U 08025A   26165.28173090  .00000120  00000+0  79345-3 0  9990
2 32953  82.5044 357.2484 0018975 320.4859  39.4837 12.43179589819338
KKS-1 (KISEKI)          
1 33499U 09002H   26165.22061409  .00001227  00000+0  15738-3 0  9991
2 33499  98.1192  87.6158 0006674 307.3634  52.6971 14.83117281935759
SWISSCUBE               
1 35932U 09051B   26165.22670746  .00000895  00000+0  18634-3 0  9997
2 35932  98.4040  73.0633 0005785 213.5244 146.5592 14.62476649888721
BEESAT-1                
1 35933U 09051C   26165.30305620  .00000739  00000+0  15814-3 0  9997
2 35933  98.3967  72.7826 0004080 228.1566 131.9287 14.61716350888763
ITUPSAT1                
1 35935U 09051E   26165.22290827  .00000683  00000+0  15098-3 0  9994
2 35935  98.4052  71.8963 0006164 244.9503 115.1058 14.60436749888305
XIWANG-1 (HOPE-1)       
1 36122U 09072B   26165.27991448  .00000111  00000+0  40597-3 0  9996
2 36122 100.4021 119.1582 0006827 238.7906 121.2538 13.16440450792625
O/OREOS (USA 219)       
1 37224U 10062C   26165.18250907  .00002244  00000+0  21739-3 0  9995
2 37224  71.9713  87.1452 0012472  69.6515 290.5994 14.93733212116194
JUGNU                   
1 37839U 11058B   26165.13992560  .00000401  00000+0  70161-4 0  9993
2 37839  19.9620 326.9419 0018614  42.7337 118.6103 14.13775965758591
SRMSAT                  
1 37841U 11058D   26165.10596875  .00000361  00000+0  51961-4 0  9994
2 37841  19.9719  78.1172 0011859 169.7435 229.6321 14.11574987757388
STRAND-1                
1 39090U 13009E   26164.99264803  .00000257  00000+0  10072-3 0  9990
2 39090  98.3921 345.3057 0007583 236.1034 123.9432 14.37161671696602
ZACUBE-1 (TSHEPISOSAT)  
1 39417U 13066B   26165.14115578  .00003529  00000+0  27550-3 0  9992
2 39417  97.8083 127.4617 0040471 258.3287 101.3393 15.01173415680271
GOMX-1                  
1 39430U 13066Q   26165.25794256  .00001978  00000+0  30067-3 0  9998
2 39430  97.6485   5.9059 0130191  86.8493 274.7601 14.69450522669489
